start=new Date('2022-09-04T00:00:00.000Z').valueOf();
sats=[{"MEAN_MOTION":"15.06412392","LAUNCH_DATE":"2020-09-03","APOAPSIS":"547.997","CLASSIFICATION_TYPE":"U","OBJECT_ID":"2020-062AK","OBJECT_NAME":"STARLINK-1690","RA_OF_ASC_NODE":"15.9881","PERIAPSIS":"546.354","PERIOD":"95.591","RCS_SIZE":"LARGE","TLE_LINE1":"1 46358U 20062AK  22246.74465687  .00001186  00000-0  98465-4 0  9991","OBJECT_TYPE":"PAYLOAD","SITE":"AFETR","DECAY_DATE":null,"MEAN_MOTION_DDOT":"0.0000000000000","EPOCH":"2022-09-03T17:52:18.353568","CENTER_NAME":"EARTH","ARG_OF_PERICENTER":"82.2231","SEMIMAJOR_AXIS":"6925.311","MEAN_MOTION_DOT":"0.00001186","INCLINATION":"53.0587","ELEMENT_SET_NO":"999","REV_AT_EPOCH":"11094","EPHEMERIS_TYPE":"0","NORAD_CAT_ID":"46358","ECCENTRICITY":"0.00011860","COUNTRY_CODE":"US","GP_ID":"211668093","TLE_LINE2":"2 46358  53.0587  15.9881 0001186  82.2231 277.8893 15.06412392110944","TIME_SYSTEM":"UTC","MEAN_ANOMALY":"277.8893","MEAN_ELEMENT_THEORY":"SGP4","BSTAR":"0.00009846500000","FILE":"3556957","REF_FRAME":"TEME"},{"NORAD_CAT_ID":"46359","EPHEMERIS_TYPE":"0","REV_AT_EPOCH":"11170","ELEMENT_SET_NO":"999","INCLINATION":"53.0550","REF_FRAME":"TEME","FILE":"3556263","BSTAR":"0.00009784500000","TIME_SYSTEM":"UTC","MEAN_ANOMALY":"284.8948","MEAN_ELEMENT_THEORY":"SGP4","TLE_LINE2":"2 46359  53.0550 332.2788 0001378  75.2193 284.8948 15.06397919111709","COUNTRY_CODE":"US","GP_ID":"211607492","ECCENTRICITY":"0.00013780","PERIOD":"95.592","PERIAPSIS":"546.266","RA_OF_ASC_NODE":"332.2788","CLASSIFICATION_TYPE":"U","APOAPSIS":"548.174","OBJECT_ID":"2020-062AL","OBJECT_NAME":"STARLINK-1707","MEAN_MOTION":"15.06397919","LAUNCH_DATE":"2020-09-03","SEMIMAJOR_AXIS":"6925.355","MEAN_MOTION_DOT":"0.00001176","ARG_OF_PERICENTER":"75.2193","CENTER_NAME":"EARTH","EPOCH":"2022-09-03T11:01:37.172064","MEAN_MOTION_DDOT":"0.0000000000000","OBJECT_TYPE":"PAYLOAD","DECAY_DATE":null,"SITE":"AFETR","RCS_SIZE":"LARGE","TLE_LINE1":"1 46359U 20062AL  22246.45945801  .00001176  00000-0  97845-4 0  9991"},{"SEMIMAJOR_AXIS":"6925.357","MEAN_MOTION_DOT":"-0.00000156","ARG_OF_PERICENTER":"75.7939","CENTER_NAME":"EARTH","EPOCH":"2022-09-03T17:55:38.260704","MEAN_MOTION_DDOT":"0.0000000000000","OBJECT_TYPE":"PAYLOAD","SITE":"AFETR","DECAY_DATE":null,"TLE_LINE1":"1 46360U 20062AM  22246.74697061 -.00000156  00000-0  84010-5 0  9996","RCS_SIZE":"LARGE","PERIOD":"95.592","RA_OF_ASC_NODE":"330.9852","PERIAPSIS":"546.250","CLASSIFICATION_TYPE":"U","APOAPSIS":"548.195","OBJECT_NAME":"STARLINK-1713","OBJECT_ID":"2020-062AM","MEAN_MOTION":"15.06397163","LAUNCH_DATE":"2020-09-03","REF_FRAME":"TEME","FILE":"3556957","BSTAR":"0.00000840100000","TIME_SYSTEM":"UTC","MEAN_ANOMALY":"284.3206","MEAN_ELEMENT_THEORY":"SGP4","TLE_LINE2":"2 46360  53.0551 330.9852 0001404  75.7939 284.3206 15.06397163111570","COUNTRY_CODE":"US","GP_ID":"211668594","ECCENTRICITY":"0.00014040","NORAD_CAT_ID":"46360","EPHEMERIS_TYPE":"0","REV_AT_EPOCH":"11157","ELEMENT_SET_NO":"999","INCLINATION":"53.0551"},{"ARG_OF_PERICENTER":"91.6917","MEAN_MOTION_DOT":"0.00003295","SEMIMAJOR_AXIS":"6925.327","EPOCH":"2022-09-03T12:25:11.409024","CENTER_NAME":"EARTH","SITE":"AFETR","DECAY_DATE":null,"OBJECT_TYPE":"PAYLOAD","MEAN_MOTION_DDOT":"0.0000000000000","TLE_LINE1":"1 46361U 20062AN  22246.51749316  .00003295  00000-0  23995-3 0  9992","RCS_SIZE":"LARGE","PERIOD":"95.592","RA_OF_ASC_NODE":"331.9844","PERIAPSIS":"546.209","LAUNCH_DATE":"2020-09-03","MEAN_MOTION":"15.06407029","OBJECT_NAME":"STARLINK-1722","OBJECT_ID":"2020-062AN","CLASSIFICATION_TYPE":"U","APOAPSIS":"548.175","REF_FRAME":"TEME","MEAN_ANOMALY":"268.4235","MEAN_ELEMENT_THEORY":"SGP4","TIME_SYSTEM":"UTC","FILE":"3556494","BSTAR":"0.00023995000000","GP_ID":"211632308","COUNTRY_CODE":"US","TLE_LINE2":"2 46361  53.0550 331.9844 0001420  91.6917 268.4235 15.06407029111537","ECCENTRICITY":"0.00014200","NORAD_CAT_ID":"46361","EPHEMERIS_TYPE":"0","REV_AT_EPOCH":"11153","INCLINATION":"53.0550","ELEMENT_SET_NO":"999"},{"CLASSIFICATION_TYPE":"U","APOAPSIS":"548.206","OBJECT_NAME":"STARLINK-1726","OBJECT_ID":"2020-062AP","MEAN_MOTION":"15.06412508","LAUNCH_DATE":"2020-09-03","RA_OF_ASC_NODE":"331.5098","PERIAPSIS":"546.145","PERIOD":"95.591","RCS_SIZE":"LARGE","TLE_LINE1":"1 46362U 20062AP  22246.62901064  .00002022  00000-0  15457-3 0  9996","MEAN_MOTION_DDOT":"0.0000000000000","OBJECT_TYPE":"PAYLOAD","DECAY_DATE":null,"SITE":"AFETR","CENTER_NAME":"EARTH","EPOCH":"2022-09-03T15:05:46.519296","SEMIMAJOR_AXIS":"6925.310","MEAN_MOTION_DOT":"0.00002022","ARG_OF_PERICENTER":"82.7660","ELEMENT_SET_NO":"999","INCLINATION":"53.0561","REV_AT_EPOCH":"11155","EPHEMERIS_TYPE":"0","NORAD_CAT_ID":"46362","ECCENTRICITY":"0.00014880","TLE_LINE2":"2 46362  53.0561 331.5098 0001488  82.7660 277.3498 15.06412508111557","COUNTRY_CODE":"US","GP_ID":"211667594","FILE":"3556957","BSTAR":"0.00015457000000","TIME_SYSTEM":"UTC","MEAN_ANOMALY":"277.3498","MEAN_ELEMENT_THEORY":"SGP4","REF_FRAME":"TEME"},{"ECCENTRICITY":"0.00013790","COUNTRY_CODE":"US","GP_ID":"211667844","TLE_LINE2":"2 46363  53.0559 331.5193 0001379  78.1329 281.9814 15.06410434111550","TIME_SYSTEM":"UTC","MEAN_ANOMALY":"281.9814","MEAN_ELEMENT_THEORY":"SGP4","BSTAR":"0.00013543000000","FILE":"3556957","REF_FRAME":"TEME","ELEMENT_SET_NO":"999","INCLINATION":"53.0559","REV_AT_EPOCH":"11155","EPHEMERIS_TYPE":"0","NORAD_CAT_ID":"46363","RCS_SIZE":"LARGE","TLE_LINE1":"1 46363U 20062AQ  22246.62069136  .00001737  00000-0  13543-3 0  9998","OBJECT_TYPE":"PAYLOAD","SITE":"AFETR","DECAY_DATE":null,"MEAN_MOTION_DDOT":"0.0000000000000","EPOCH":"2022-09-03T14:53:47.733504","CENTER_NAME":"EARTH","ARG_OF_PERICENTER":"78.1329","SEMIMAJOR_AXIS":"6925.317","MEAN_MOTION_DOT":"0.00001737","MEAN_MOTION":"15.06410434","LAUNCH_DATE":"2020-09-03","APOAPSIS":"548.137","CLASSIFICATION_TYPE":"U","OBJECT_NAME":"STARLINK-1739","OBJECT_ID":"2020-062AQ","RA_OF_ASC_NODE":"331.5193","PERIAPSIS":"546.227","PERIOD":"95.591"},{"NORAD_CAT_ID":"46364","EPHEMERIS_TYPE":"0","REV_AT_EPOCH":"11186","ELEMENT_SET_NO":"999","INCLINATION":"53.0556","REF_FRAME":"TEME","BSTAR":"0.00023370000000","FILE":"3556957","MEAN_ANOMALY":"235.4369","MEAN_ELEMENT_THEORY":"SGP4","TIME_SYSTEM":"UTC","TLE_LINE2":"2 46364  53.0556 310.8309 0001186 124.6732 235.4369 15.06403543111864","GP_ID":"211669094","COUNTRY_CODE":"US","ECCENTRICITY":"0.00011860","PERIOD":"95.592","PERIAPSIS":"546.381","RA_OF_ASC_NODE":"310.8309","OBJECT_NAME":"STARLINK-1763","OBJECT_ID":"2020-062AR","APOAPSIS":"548.024","CLASSIFICATION_TYPE":"U","LAUNCH_DATE":"2020-09-03","MEAN_MOTION":"15.06403543","MEAN_MOTION_DOT":"0.00003202","SEMIMAJOR_AXIS":"6925.338","ARG_OF_PERICENTER":"124.6732","CENTER_NAME":"EARTH","EPOCH":"2022-09-03T21:20:04.034976","MEAN_MOTION_DDOT":"0.0000000000000","SITE":"AFETR","DECAY_DATE":null,"OBJECT_TYPE":"PAYLOAD","RCS_SIZE":"LARGE","TLE_LINE1":"1 46364U 20062AR  22246.88893559  .00003202  00000-0  23370-3 0  9999"},{"LAUNCH_DATE":"2020-09-03","MEAN_MOTION":"15.06395064","OBJECT_ID":"2020-062AS","OBJECT_NAME":"STARLINK-1550","CLASSIFICATION_TYPE":"U","APOAPSIS":"548.065","RA_OF_ASC_NODE":"331.9312","PERIAPSIS":"546.392","PERIOD":"95.592","RCS_SIZE":"LARGE","TLE_LINE1":"1 46365U 20062AS  22246.53317724  .00001113  00000-0  93627-4 0  9999","SITE":"AFETR","DECAY_DATE":null,"OBJECT_TYPE":"PAYLOAD","MEAN_MOTION_DDOT":"0.0000000000000","EPOCH":"2022-09-03T12:47:46.513536","CENTER_NAME":"EARTH","ARG_OF_PERICENTER":"80.2101","MEAN_MOTION_DOT":"0.00001113","SEMIMAJOR_AXIS":"6925.364","ELEMENT_SET_NO":"999","INCLINATION":"53.0564","REV_AT_EPOCH":"11169","EPHEMERIS_TYPE":"0","NORAD_CAT_ID":"46365","ECCENTRICITY":"0.00012080","GP_ID":"211639386","COUNTRY_CODE":"US","TLE_LINE2":"2 46365  53.0564 331.9312 0001208  80.2101 279.9024 15.06395064111694","MEAN_ANOMALY":"279.9024","MEAN_ELEMENT_THEORY":"SGP4","TIME_SYSTEM":"UTC","BSTAR":"0.00009362700000","FILE":"3556559","REF_FRAME":"TEME"},{"NORAD_CAT_ID":"46366","EPHEMERIS_TYPE":"0","REV_AT_EPOCH":"11152","ELEMENT_SET_NO":"999","INCLINATION":"53.0566","REF_FRAME":"TEME","BSTAR":"0.00007965300000","FILE":"3556494","TIME_SYSTEM":"UTC","MEAN_ANOMALY":"268.8852","MEAN_ELEMENT_THEORY":"SGP4","TLE_LINE2":"2 46366  53.0566 332.2845 0001311  91.2287 268.8852 15.06397906111529","COUNTRY_CODE":"US","GP_ID":"211633055","ECCENTRICITY":"0.00013110","PERIOD":"95.592","RA_OF_ASC_NODE":"332.2845","PERIAPSIS":"546.312","CLASSIFICATION_TYPE":"U","APOAPSIS":"548.128","OBJECT_NAME":"STARLINK-1651","OBJECT_ID":"2020-062AT","MEAN_MOTION":"15.06397906","LAUNCH_DATE":"2020-09-03","SEMIMAJOR_AXIS":"6925.355","MEAN_MOTION_DOT":"0.00000905","ARG_OF_PERICENTER":"91.2287","CENTER_NAME":"EARTH","EPOCH":"2022-09-03T10:56:19.042944","MEAN_MOTION_DDOT":"0.0000000000000","OBJECT_TYPE":"PAYLOAD","DECAY_DATE":null,"SITE":"AFETR","RCS_SIZE":"LARGE","TLE_LINE1":"1 46366U 20062AT  22246.45577596  .00000905  00000-0  79653-4 0  9997"},{"FILE":"3556957","BSTAR":"0.00019618000000","TIME_SYSTEM":"UTC","MEAN_ELEMENT_THEORY":"SGP4","MEAN_ANOMALY":"277.7392","REF_FRAME":"TEME","ECCENTRICITY":"0.00013950","TLE_LINE2":"2 46368  53.0563 355.7782 0001395  82.3755 277.7392 15.06403000111230","COUNTRY_CODE":"US","GP_ID":"211668344","EPHEMERIS_TYPE":"0","NORAD_CAT_ID":"46368","ELEMENT_SET_NO":"999","INCLINATION":"53.0563","REV_AT_EPOCH":"11123","CENTER_NAME":"EARTH","EPOCH":"2022-09-03T18:51:59.305248","SEMIMAJOR_AXIS":"6925.339","MEAN_MOTION_DOT":"0.00002642","ARG_OF_PERICENTER":"82.3755","RCS_SIZE":"LARGE","TLE_LINE1":"1 46368U 20062AV  22246.78610307  .00002642  00000-0  19618-3 0  9997","MEAN_MOTION_DDOT":"0.0000000000000","OBJECT_TYPE":"PAYLOAD","DECAY_DATE":null,"SITE":"AFETR","PERIOD":"95.592","CLASSIFICATION_TYPE":"U","APOAPSIS":"548.170","OBJECT_ID":"2020-062AV","OBJECT_NAME":"STARLINK-1658","MEAN_MOTION":"15.06403000","LAUNCH_DATE":"2020-09-03","RA_OF_ASC_NODE":"355.7782","PERIAPSIS":"546.238"}];
